SL-8 R/B                
1 19257U 88053B   26102.60598948  .00000125  00000+0  49107-4 0  9990
2 19257  74.0482  49.9438 0021101 224.3601 308.8571 14.38937464981471
COSMOS 1975             
1 19573U 88093A   26102.44393799  .00003542  00000+0  12608-3 0  9995
2 19573  82.5167  83.7796 0013021  58.2588 301.9918 15.28533209 24565
SL-14 R/B               
1 19574U 88093B   26102.74057280  .00000287  00000+0  30240-4 0  9997
2 19574  82.5346  10.0874 0019169 286.9661 127.1815 14.85696430  6074
SL-16 R/B               
1 19650U 88102B   26102.66834093  .00000060  00000+0  54465-4 0  9993
2 19650  70.9984  79.9988 0015904 312.6061  47.3720 14.16159889931703
INTERCOSMOS 24          
1 20261U 89080A   26102.64153409  .00000295  00000+0  84380-4 0  9991
2 20261  82.6020  82.2890 1187207 213.9585 137.9747 12.59595489671075
SL-14 R/B               
1 20262U 89080C   26102.48258191  .00000237  00000+0  61294-4 0  9993
2 20262  82.5930 151.5015 1230957 107.5482 266.3685 12.50523304664370
DELTA 1 R/B             
1 20323U 89089B   26102.83237029  .00000190  00000+0  55659-4 0  9992
2 20323  97.0678 304.8333 0069485  15.9147 344.4212 14.50691326900682
ARIANE 40 R/B           
1 20443U 90005H   26102.86389660  .00000160  00000+0  64317-4 0  9995
2 20443  98.3017 162.4951 0011419 101.7817 258.4654 14.39893695897726
DELTA 2 R/B(1)          
1 20453U 90008B   26102.77839264  .00045266  00000+0  45427-3 0  9995
2 20453  35.6031 310.3549 0076209 219.7258 139.7881 15.60702647931454
COSMOS 2058             
1 20465U 90010A   26102.74216626  .00002118  00000+0  12280-3 0  9999
2 20465  82.4725  13.8783 0008836 209.1733 150.9005 15.11647677947383
SL-14 R/B               
1 20466U 90010B   26102.81454666  .00000335  00000+0  37653-4 0  9997
2 20466  82.5022 235.3286 0019722 183.2258 176.8833 14.83603879933547
SL-14 R/B               
1 20511U 90018B   26102.59502736  .00000263  00000+0  30062-4 0  9990
2 20511  82.5244 191.4088 0015720 345.5053  14.5708 14.82178468927605
HST                     
1 20580U 90037B   26102.86654623  .00004612  00000+0  14651-3 0  9997
2 20580  28.4729 166.7593 0002326 137.7935 222.2840 15.30034452778553
SL-16 R/B               
1 20625U 90046B   26102.77058942 -.00000251  00000+0 -10452-3 0  9991
2 20625  70.9996 226.3330 0016566 255.3541 104.5746 14.15018033853217
COSMOS 2084             
1 20663U 90055A   26102.72388207  .00001706  00000+0  13070-3 0  9991
2 20663  62.7900 219.4779 0011595 202.6858 157.3731 15.05859871941442
SL-6 R/B(2)             
1 20666U 90055D   26102.81995100  .00001057  00000+0  90618-4 0  9993
2 20666  62.7806 137.7706 0030371 354.4091   5.6664 15.03754847943324
SL-8 R/B                
1 20775U 90078B   26102.69988161  .00009006  00000+0  26588-3 0  9990
2 20775  82.9044 220.6983 0356731 259.1272  96.9622 14.90024591814364
