[{"OBJECT_NAME":"SL-8 R/B","OBJECT_ID":"1988-053B","EPOCH":"2026-04-12T14:32:37.491072","MEAN_MOTION":14.38937464,"ECCENTRICITY":0.0021101,"INCLINATION":74.0482,"RA_OF_ASC_NODE":49.9438,"ARG_OF_PERICENTER":224.3601,"MEAN_ANOMALY":308.8571,"EPHEMERIS_TYPE":0,"CLASSIFICATION_TYPE":"U","NORAD_CAT_ID":19257,"ELEMENT_SET_NO":999,"REV_AT_EPOCH":98147,"BSTAR":4.9107e-5,"MEAN_MOTION_DOT":1.25e-6,"MEAN_MOTION_DDOT":0},{"OBJECT_NAME":"COSMOS 1975","OBJECT_ID":"1988-093A","EPOCH":"2026-04-12T10:39:16.242336","MEAN_MOTION":15.28533209,"ECCENTRICITY":0.0013021,"INCLINATION":82.5167,"RA_OF_ASC_NODE":83.7796,"ARG_OF_PERICENTER":58.2588,"MEAN_ANOMALY":301.9918,"EPHEMERIS_TYPE":0,"CLASSIFICATION_TYPE":"U","NORAD_CAT_ID":19573,"ELEMENT_SET_NO":999,"REV_AT_EPOCH":2456,"BSTAR":0.00012608,"MEAN_MOTION_DOT":3.542e-5,"MEAN_MOTION_DDOT":0},{"OBJECT_NAME":"SL-14 R/B","OBJECT_ID":"1988-093B","EPOCH":"2026-04-12T17:46:25.489920","MEAN_MOTION":14.8569643,"ECCENTRICITY":0.0019169,"INCLINATION":82.5346,"RA_OF_ASC_NODE":10.0874,"ARG_OF_PERICENTER":286.9661,"MEAN_ANOMALY":127.1815,"EPHEMERIS_TYPE":0,"CLASSIFICATION_TYPE":"U","NORAD_CAT_ID":19574,"ELEMENT_SET_NO":999,"REV_AT_EPOCH":607,"BSTAR":3.024e-5,"MEAN_MOTION_DOT":2.87e-6,"MEAN_MOTION_DDOT":0},{"OBJECT_NAME":"SL-16 R/B","OBJECT_ID":"1988-102B","EPOCH":"2026-04-12T16:02:24.656352","MEAN_MOTION":14.16159889,"ECCENTRICITY":0.0015904,"INCLINATION":70.9984,"RA_OF_ASC_NODE":79.9988,"ARG_OF_PERICENTER":312.6061,"MEAN_ANOMALY":47.372,"EPHEMERIS_TYPE":0,"CLASSIFICATION_TYPE":"U","NORAD_CAT_ID":19650,"ELEMENT_SET_NO":999,"REV_AT_EPOCH":93170,"BSTAR":5.4465e-5,"MEAN_MOTION_DOT":6.0e-7,"MEAN_MOTION_DDOT":0},{"OBJECT_NAME":"INTERCOSMOS 24","OBJECT_ID":"1989-080A","EPOCH":"2026-04-12T15:23:48.545376","MEAN_MOTION":12.59595489,"ECCENTRICITY":0.1187207,"INCLINATION":82.602,"RA_OF_ASC_NODE":82.289,"ARG_OF_PERICENTER":213.9585,"MEAN_ANOMALY":137.9747,"EPHEMERIS_TYPE":0,"CLASSIFICATION_TYPE":"U","NORAD_CAT_ID":20261,"ELEMENT_SET_NO":999,"REV_AT_EPOCH":67107,"BSTAR":8.438e-5,"MEAN_MOTION_DOT":2.95e-6,"MEAN_MOTION_DDOT":0},{"OBJECT_NAME":"SL-14 R/B","OBJECT_ID":"1989-080C","EPOCH":"2026-04-12T11:34:55.077024","MEAN_MOTION":12.50523304,"ECCENTRICITY":0.1230957,"INCLINATION":82.593,"RA_OF_ASC_NODE":151.5015,"ARG_OF_PERICENTER":107.5482,"MEAN_ANOMALY":266.3685,"EPHEMERIS_TYPE":0,"CLASSIFICATION_TYPE":"U","NORAD_CAT_ID":20262,"ELEMENT_SET_NO":999,"REV_AT_EPOCH":66437,"BSTAR":6.1294e-5,"MEAN_MOTION_DOT":2.37e-6,"MEAN_MOTION_DDOT":0},{"OBJECT_NAME":"DELTA 1 R/B","OBJECT_ID":"1989-089B","EPOCH":"2026-04-12T19:58:36.793056","MEAN_MOTION":14.50691326,"ECCENTRICITY":0.0069485,"INCLINATION":97.0678,"RA_OF_ASC_NODE":304.8333,"ARG_OF_PERICENTER":15.9147,"MEAN_ANOMALY":344.4212,"EPHEMERIS_TYPE":0,"CLASSIFICATION_TYPE":"U","NORAD_CAT_ID":20323,"ELEMENT_SET_NO":999,"REV_AT_EPOCH":90068,"BSTAR":5.5659e-5,"MEAN_MOTION_DOT":1.9e-6,"MEAN_MOTION_DDOT":0},{"OBJECT_NAME":"ARIANE 40 R/B","OBJECT_ID":"1990-005H","EPOCH":"2026-04-12T20:44:00.666240","MEAN_MOTION":14.39893695,"ECCENTRICITY":0.0011419,"INCLINATION":98.3017,"RA_OF_ASC_NODE":162.4951,"ARG_OF_PERICENTER":101.7817,"MEAN_ANOMALY":258.4654,"EPHEMERIS_TYPE":0,"CLASSIFICATION_TYPE":"U","NORAD_CAT_ID":20443,"ELEMENT_SET_NO":999,"REV_AT_EPOCH":89772,"BSTAR":6.4317e-5,"MEAN_MOTION_DOT":1.6e-6,"MEAN_MOTION_DDOT":0},{"OBJECT_NAME":"DELTA 2 R/B(1)","OBJECT_ID":"1990-008B","EPOCH":"2026-04-12T18:40:53.124096","MEAN_MOTION":15.60702647,"ECCENTRICITY":0.0076209,"INCLINATION":35.6031,"RA_OF_ASC_NODE":310.3549,"ARG_OF_PERICENTER":219.7258,"MEAN_ANOMALY":139.7881,"EPHEMERIS_TYPE":0,"CLASSIFICATION_TYPE":"U","NORAD_CAT_ID":20453,"ELEMENT_SET_NO":999,"REV_AT_EPOCH":93145,"BSTAR":0.00045427,"MEAN_MOTION_DOT":0.00045266,"MEAN_MOTION_DDOT":0},{"OBJECT_NAME":"COSMOS 2058","OBJECT_ID":"1990-010A","EPOCH":"2026-04-12T17:48:43.164864","MEAN_MOTION":15.11647677,"ECCENTRICITY":0.0008836,"INCLINATION":82.4725,"RA_OF_ASC_NODE":13.8783,"ARG_OF_PERICENTER":209.1733,"MEAN_ANOMALY":150.9005,"EPHEMERIS_TYPE":0,"CLASSIFICATION_TYPE":"U","NORAD_CAT_ID":20465,"ELEMENT_SET_NO":999,"REV_AT_EPOCH":94738,"BSTAR":0.0001228,"MEAN_MOTION_DOT":2.118e-5,"MEAN_MOTION_DDOT":0},{"OBJECT_NAME":"SL-14 R/B","OBJECT_ID":"1990-010B","EPOCH":"2026-04-12T19:32:56.831424","MEAN_MOTION":14.83603879,"ECCENTRICITY":0.0019722,"INCLINATION":82.5022,"RA_OF_ASC_NODE":235.3286,"ARG_OF_PERICENTER":183.2258,"MEAN_ANOMALY":176.8833,"EPHEMERIS_TYPE":0,"CLASSIFICATION_TYPE":"U","NORAD_CAT_ID":20466,"ELEMENT_SET_NO":999,"REV_AT_EPOCH":93354,"BSTAR":3.7653e-5,"MEAN_MOTION_DOT":3.35e-6,"MEAN_MOTION_DDOT":0},{"OBJECT_NAME":"SL-14 R/B","OBJECT_ID":"1990-018B","EPOCH":"2026-04-12T14:16:50.363904","MEAN_MOTION":14.82178468,"ECCENTRICITY":0.001572,"INCLINATION":82.5244,"RA_OF_ASC_NODE":191.4088,"ARG_OF_PERICENTER":345.5053,"MEAN_ANOMALY":14.5708,"EPHEMERIS_TYPE":0,"CLASSIFICATION_TYPE":"U","NORAD_CAT_ID":20511,"ELEMENT_SET_NO":999,"REV_AT_EPOCH":92760,"BSTAR":3.0062e-5,"MEAN_MOTION_DOT":2.63e-6,"MEAN_MOTION_DDOT":0},{"OBJECT_NAME":"HST","OBJECT_ID":"1990-037B","EPOCH":"2026-04-12T20:47:49.594272","MEAN_MOTION":15.30034452,"ECCENTRICITY":0.0002326,"INCLINATION":28.4729,"RA_OF_ASC_NODE":166.7593,"ARG_OF_PERICENTER":137.7935,"MEAN_ANOMALY":222.284,"EPHEMERIS_TYPE":0,"CLASSIFICATION_TYPE":"U","NORAD_CAT_ID":20580,"ELEMENT_SET_NO":999,"REV_AT_EPOCH":77855,"BSTAR":0.00014651,"MEAN_MOTION_DOT":4.612e-5,"MEAN_MOTION_DDOT":0},{"OBJECT_NAME":"SL-16 R/B","OBJECT_ID":"1990-046B","EPOCH":"2026-04-12T18:29:38.925888","MEAN_MOTION":14.15018033,"ECCENTRICITY":0.0016566,"INCLINATION":70.9996,"RA_OF_ASC_NODE":226.333,"ARG_OF_PERICENTER":255.3541,"MEAN_ANOMALY":104.5746,"EPHEMERIS_TYPE":0,"CLASSIFICATION_TYPE":"U","NORAD_CAT_ID":20625,"ELEMENT_SET_NO":999,"REV_AT_EPOCH":85321,"BSTAR":-0.00010452,"MEAN_MOTION_DOT":-2.51e-6,"MEAN_MOTION_DDOT":0},{"OBJECT_NAME":"COSMOS 2084","OBJECT_ID":"1990-055A","EPOCH":"2026-04-12T17:22:23.410848","MEAN_MOTION":15.05859871,"ECCENTRICITY":0.0011595,"INCLINATION":62.79,"RA_OF_ASC_NODE":219.4779,"ARG_OF_PERICENTER":202.6858,"MEAN_ANOMALY":157.3731,"EPHEMERIS_TYPE":0,"CLASSIFICATION_TYPE":"U","NORAD_CAT_ID":20663,"ELEMENT_SET_NO":999,"REV_AT_EPOCH":94144,"BSTAR":0.0001307,"MEAN_MOTION_DOT":1.706e-5,"MEAN_MOTION_DDOT":0},{"OBJECT_NAME":"SL-6 R/B(2)","OBJECT_ID":"1990-055D","EPOCH":"2026-04-12T19:40:43.766400","MEAN_MOTION":15.03754847,"ECCENTRICITY":0.0030371,"INCLINATION":62.7806,"RA_OF_ASC_NODE":137.7706,"ARG_OF_PERICENTER":354.4091,"MEAN_ANOMALY":5.6664,"EPHEMERIS_TYPE":0,"CLASSIFICATION_TYPE":"U","NORAD_CAT_ID":20666,"ELEMENT_SET_NO":999,"REV_AT_EPOCH":94332,"BSTAR":9.0618e-5,"MEAN_MOTION_DOT":1.057e-5,"MEAN_MOTION_DDOT":0},{"OBJECT_NAME":"SL-8 R/B","OBJECT_ID":"1990-078B","EPOCH":"2026-04-12T16:47:49.771104","MEAN_MOTION":14.90024591,"ECCENTRICITY":0.0356731,"INCLINATION":82.9044,"RA_OF_ASC_NODE":220.6983,"ARG_OF_PERICENTER":259.1272,"MEAN_ANOMALY":96.9622,"EPHEMERIS_TYPE":0,"CLASSIFICATION_TYPE":"U","NORAD_CAT_ID":20775,"ELEMENT_SET_NO":999,"REV_AT_EPOCH":81436,"BSTAR":0.00026588,"MEAN_MOTION_DOT":9.006e-5,"MEAN_MOTION_DDOT":0}]
